STARLINK-36900          
1 67973U 26038N   26068.58335648 -.01746247  82766-3 -59717-2 0  9991
2 67973  97.2709  78.8712 0001583 100.5101 102.0426 15.89823618  3184
STARLINK-36901          
1 67974U 26038P   26068.58335648 -.01743888  82427-3 -60120-2 0  9994
2 67974  97.2709  78.8689 0001530 100.8809  96.8423 15.89661896  3183
STARLINK-36883          
1 67975U 26038Q   26068.58335648 -.01732971  82092-3 -57467-2 0  9994
2 67975  97.2696  78.8789 0001474 105.3236 115.8836 15.90434621  3187
STARLINK-36880          
1 67976U 26038R   26068.58335648 -.01740497  82381-3 -59072-2 0  9992
2 67976  97.2704  78.8729 0001506 103.9526 103.2976 15.89974032  3183
STARLINK-36904          
1 67977U 26038S   26068.58335648 -.01732898  81958-3 -57919-2 0  9996
2 67977  97.2697  78.8765 0001548 105.2575 111.2731 15.90278045  3181
STARLINK-36364          
1 67978U 26038T   26068.58335648 -.01725624  81741-3 -56172-2 0  9996
2 67978  97.2687  78.8833 0001476 103.3775 128.8540 15.90800478  3181
STARLINK-36359          
1 67979U 26038U   26068.58335648 -.01732974  81821-3 -58443-2 0  9995
2 67979  97.2700  78.8739 0001602 104.9152 106.2440 15.90099463  3183
STARLINK-36882          
1 67980U 26038V   26068.58335648 -.01720074  81109-3 -56498-2 0  9992
2 67980  97.2690  78.8809 0001488 106.7294 120.2738 15.90621610  3181
STARLINK-36874          
1 67981U 26038W   26068.58335648 -.01715989  80990-3 -55519-2 0  9992
2 67981  97.2687  78.8848 0001527 104.4346 131.6103 15.90919452  3184
STARLINK-36879          
1 67982U 26038X   26068.58335648 -.01713483  80895-3 -55003-2 0  9992
2 67982  97.2682  78.8867 0001439 105.8178 134.9086 15.91074514  3189
STARLINK-36867          
1 67983U 26038Y   26068.58335648 -.01710342  80875-3 -54025-2 0  9995
2 67983  97.2677  78.8908 0001424 101.4021 148.8536 15.91390765  3186
STARLINK-36266          
1 67984U 26038Z   26068.58335648 -.01715684  81231-3 -54583-2 0  9996
2 67984  97.2680  78.8891 0001499 107.3152 138.6543 15.91250619  3159
