CCSDS_OMM_VERS = 2.0
CREATION_DATE  = 
ORIGINATOR     = 

OBJECT_NAME    = STARLINK-36900
OBJECT_ID      = 2026-038N
CENTER_NAME    = EARTH
REF_FRAME      = TEME
TIME_SYSTEM    = UTC
MEAN_ELEMENT_THEORY = SGP/SGP4

EPOCH          = 2026-03-09T14:00:01.999872
MEAN_MOTION    = 15.89823618
ECCENTRICITY   = .00015833
INCLINATION    = 97.2709
RA_OF_ASC_NODE = 78.8712
ARG_OF_PERICENTER = 100.5101
MEAN_ANOMALY   = 102.0426

EPHEMERIS_TYPE = 0
CLASSIFICATION_TYPE = U
NORAD_CAT_ID   = 67973
ELEMENT_SET_NO = 999
REV_AT_EPOCH   = 318
BSTAR          = -.59717065E-2
MEAN_MOTION_DOT = -.1746247E-1
MEAN_MOTION_DDOT = .82765751E-3

CCSDS_OMM_VERS = 2.0
CREATION_DATE  = 
ORIGINATOR     = 

OBJECT_NAME    = STARLINK-36901
OBJECT_ID      = 2026-038P
CENTER_NAME    = EARTH
REF_FRAME      = TEME
TIME_SYSTEM    = UTC
MEAN_ELEMENT_THEORY = SGP/SGP4

EPOCH          = 2026-03-09T14:00:01.999872
MEAN_MOTION    = 15.89661896
ECCENTRICITY   = .00015309
INCLINATION    = 97.2709
RA_OF_ASC_NODE = 78.8689
ARG_OF_PERICENTER = 100.8809
MEAN_ANOMALY   = 96.8423

EPHEMERIS_TYPE = 0
CLASSIFICATION_TYPE = U
NORAD_CAT_ID   = 67974
ELEMENT_SET_NO = 999
REV_AT_EPOCH   = 318
BSTAR          = -.60120423E-2
MEAN_MOTION_DOT = -.1743888E-1
MEAN_MOTION_DDOT = .82427396E-3

CCSDS_OMM_VERS = 2.0
CREATION_DATE  = 
ORIGINATOR     = 

OBJECT_NAME    = STARLINK-36883
OBJECT_ID      = 2026-038Q
CENTER_NAME    = EARTH
REF_FRAME      = TEME
TIME_SYSTEM    = UTC
MEAN_ELEMENT_THEORY = SGP/SGP4

EPOCH          = 2026-03-09T14:00:01.999872
MEAN_MOTION    = 15.90434621
ECCENTRICITY   = .00014743
INCLINATION    = 97.2696
RA_OF_ASC_NODE = 78.8789
ARG_OF_PERICENTER = 105.3236
MEAN_ANOMALY   = 115.8836

EPHEMERIS_TYPE = 0
CLASSIFICATION_TYPE = U
NORAD_CAT_ID   = 67975
ELEMENT_SET_NO = 999
REV_AT_EPOCH   = 318
BSTAR          = -.57466848E-2
MEAN_MOTION_DOT = -.1732971E-1
MEAN_MOTION_DDOT = .82091586E-3

CCSDS_OMM_VERS = 2.0
CREATION_DATE  = 
ORIGINATOR     = 

OBJECT_NAME    = STARLINK-36880
OBJECT_ID      = 2026-038R
CENTER_NAME    = EARTH
REF_FRAME      = TEME
TIME_SYSTEM    = UTC
MEAN_ELEMENT_THEORY = SGP/SGP4

EPOCH          = 2026-03-09T14:00:01.999872
MEAN_MOTION    = 15.89974032
ECCENTRICITY   = .00015064
INCLINATION    = 97.2704
RA_OF_ASC_NODE = 78.8729
ARG_OF_PERICENTER = 103.9526
MEAN_ANOMALY   = 103.2976

EPHEMERIS_TYPE = 0
CLASSIFICATION_TYPE = U
NORAD_CAT_ID   = 67976
ELEMENT_SET_NO = 999
REV_AT_EPOCH   = 318
BSTAR          = -.59071755E-2
MEAN_MOTION_DOT = -.1740497E-1
MEAN_MOTION_DDOT = .82381197E-3

CCSDS_OMM_VERS = 2.0
CREATION_DATE  = 
ORIGINATOR     = 

OBJECT_NAME    = STARLINK-36904
OBJECT_ID      = 2026-038S
CENTER_NAME    = EARTH
REF_FRAME      = TEME
TIME_SYSTEM    = UTC
MEAN_ELEMENT_THEORY = SGP/SGP4

EPOCH          = 2026-03-09T14:00:01.999872
MEAN_MOTION    = 15.90278045
ECCENTRICITY   = .00015486
INCLINATION    = 97.2697
RA_OF_ASC_NODE = 78.8765
ARG_OF_PERICENTER = 105.2575
MEAN_ANOMALY   = 111.2731

EPHEMERIS_TYPE = 0
CLASSIFICATION_TYPE = U
NORAD_CAT_ID   = 67977
ELEMENT_SET_NO = 999
REV_AT_EPOCH   = 318
BSTAR          = -.5791887E-2
MEAN_MOTION_DOT = -.1732898E-1
MEAN_MOTION_DDOT = .8195836E-3

CCSDS_OMM_VERS = 2.0
CREATION_DATE  = 
ORIGINATOR     = 

OBJECT_NAME    = STARLINK-36364
OBJECT_ID      = 2026-038T
CENTER_NAME    = EARTH
REF_FRAME      = TEME
TIME_SYSTEM    = UTC
MEAN_ELEMENT_THEORY = SGP/SGP4

EPOCH          = 2026-03-09T14:00:01.999872
MEAN_MOTION    = 15.90800478
ECCENTRICITY   = .00014767
INCLINATION    = 97.2687
RA_OF_ASC_NODE = 78.8833
ARG_OF_PERICENTER = 103.3775
MEAN_ANOMALY   = 128.8540

EPHEMERIS_TYPE = 0
CLASSIFICATION_TYPE = U
NORAD_CAT_ID   = 67978
ELEMENT_SET_NO = 999
REV_AT_EPOCH   = 318
BSTAR          = -.56172323E-2
MEAN_MOTION_DOT = -.1725624E-1
MEAN_MOTION_DDOT = .8174124E-3

CCSDS_OMM_VERS = 2.0
CREATION_DATE  = 
ORIGINATOR     = 

OBJECT_NAME    = STARLINK-36359
OBJECT_ID      = 2026-038U
CENTER_NAME    = EARTH
REF_FRAME      = TEME
TIME_SYSTEM    = UTC
MEAN_ELEMENT_THEORY = SGP/SGP4

EPOCH          = 2026-03-09T14:00:01.999872
MEAN_MOTION    = 15.90099463
ECCENTRICITY   = .00016029
INCLINATION    = 97.2700
RA_OF_ASC_NODE = 78.8739
ARG_OF_PERICENTER = 104.9152
MEAN_ANOMALY   = 106.2440

EPHEMERIS_TYPE = 0
CLASSIFICATION_TYPE = U
NORAD_CAT_ID   = 67979
ELEMENT_SET_NO = 999
REV_AT_EPOCH   = 318
BSTAR          = -.58443473E-2
MEAN_MOTION_DOT = -.1732974E-1
MEAN_MOTION_DDOT = .81821097E-3

CCSDS_OMM_VERS = 2.0
CREATION_DATE  = 
ORIGINATOR     = 

OBJECT_NAME    = STARLINK-36882
OBJECT_ID      = 2026-038V
CENTER_NAME    = EARTH
REF_FRAME      = TEME
TIME_SYSTEM    = UTC
MEAN_ELEMENT_THEORY = SGP/SGP4

EPOCH          = 2026-03-09T14:00:01.999872
MEAN_MOTION    = 15.90621610
ECCENTRICITY   = .00014886
INCLINATION    = 97.2690
RA_OF_ASC_NODE = 78.8809
ARG_OF_PERICENTER = 106.7294
MEAN_ANOMALY   = 120.2738

EPHEMERIS_TYPE = 0
CLASSIFICATION_TYPE = U
NORAD_CAT_ID   = 67980
ELEMENT_SET_NO = 999
REV_AT_EPOCH   = 318
BSTAR          = -.56498286E-2
MEAN_MOTION_DOT = -.1720074E-1
MEAN_MOTION_DDOT = .81109188E-3

CCSDS_OMM_VERS = 2.0
CREATION_DATE  = 
ORIGINATOR     = 

OBJECT_NAME    = STARLINK-36874
OBJECT_ID      = 2026-038W
CENTER_NAME    = EARTH
REF_FRAME      = TEME
TIME_SYSTEM    = UTC
MEAN_ELEMENT_THEORY = SGP/SGP4

EPOCH          = 2026-03-09T14:00:01.999872
MEAN_MOTION    = 15.90919452
ECCENTRICITY   = .00015271
INCLINATION    = 97.2687
RA_OF_ASC_NODE = 78.8848
ARG_OF_PERICENTER = 104.4346
MEAN_ANOMALY   = 131.6103

EPHEMERIS_TYPE = 0
CLASSIFICATION_TYPE = U
NORAD_CAT_ID   = 67981
ELEMENT_SET_NO = 999
REV_AT_EPOCH   = 318
BSTAR          = -.55518972E-2
MEAN_MOTION_DOT = -.1715989E-1
MEAN_MOTION_DDOT = .80990415E-3

CCSDS_OMM_VERS = 2.0
CREATION_DATE  = 
ORIGINATOR     = 

OBJECT_NAME    = STARLINK-36879
OBJECT_ID      = 2026-038X
CENTER_NAME    = EARTH
REF_FRAME      = TEME
TIME_SYSTEM    = UTC
MEAN_ELEMENT_THEORY = SGP/SGP4

EPOCH          = 2026-03-09T14:00:01.999872
MEAN_MOTION    = 15.91074514
ECCENTRICITY   = .00014393
INCLINATION    = 97.2682
RA_OF_ASC_NODE = 78.8867
ARG_OF_PERICENTER = 105.8178
MEAN_ANOMALY   = 134.9086

EPHEMERIS_TYPE = 0
CLASSIFICATION_TYPE = U
NORAD_CAT_ID   = 67982
ELEMENT_SET_NO = 999
REV_AT_EPOCH   = 318
BSTAR          = -.55003125E-2
MEAN_MOTION_DOT = -.1713483E-1
MEAN_MOTION_DDOT = .80895276E-3

CCSDS_OMM_VERS = 2.0
CREATION_DATE  = 
ORIGINATOR     = 

OBJECT_NAME    = STARLINK-36867
OBJECT_ID      = 2026-038Y
CENTER_NAME    = EARTH
REF_FRAME      = TEME
TIME_SYSTEM    = UTC
MEAN_ELEMENT_THEORY = SGP/SGP4

EPOCH          = 2026-03-09T14:00:01.999872
MEAN_MOTION    = 15.91390765
ECCENTRICITY   = .00014241
INCLINATION    = 97.2677
RA_OF_ASC_NODE = 78.8908
ARG_OF_PERICENTER = 101.4021
MEAN_ANOMALY   = 148.8536

EPHEMERIS_TYPE = 0
CLASSIFICATION_TYPE = U
NORAD_CAT_ID   = 67983
ELEMENT_SET_NO = 999
REV_AT_EPOCH   = 318
BSTAR          = -.54024976E-2
MEAN_MOTION_DOT = -.1710342E-1
MEAN_MOTION_DDOT = .80874787E-3

CCSDS_OMM_VERS = 2.0
CREATION_DATE  = 
ORIGINATOR     = 

OBJECT_NAME    = STARLINK-36266
OBJECT_ID      = 2026-038Z
CENTER_NAME    = EARTH
REF_FRAME      = TEME
TIME_SYSTEM    = UTC
MEAN_ELEMENT_THEORY = SGP/SGP4

EPOCH          = 2026-03-09T14:00:01.999872
MEAN_MOTION    = 15.91250619
ECCENTRICITY   = .00014991
INCLINATION    = 97.2680
RA_OF_ASC_NODE = 78.8891
ARG_OF_PERICENTER = 107.3152
MEAN_ANOMALY   = 138.6543

EPHEMERIS_TYPE = 0
CLASSIFICATION_TYPE = U
NORAD_CAT_ID   = 67984
ELEMENT_SET_NO = 999
REV_AT_EPOCH   = 315
BSTAR          = -.54583356E-2
MEAN_MOTION_DOT = -.1715684E-1
MEAN_MOTION_DDOT = .81231068E-3

